{
  "type": "FeatureCollection",
  "features": [
    {
      "type": "Feature",
      "properties": {
        "norad_id": 66683,
        "name": "TRANSPORTER-15T",
        "group": "last-30-days",
        "lat": -5.638829056897854,
        "lon": -108.33597965721616,
        "alt_km": 515.8251291531187,
        "timestamp": "2025-12-26T21:25:51.732700+00:00",
        "meta_object_name": "TRANSPORTER-15T",
        "meta_object_id": "2025-276T",
        "meta_epoch": "2025-12-26T14:16:59.828160",
        "meta_mean_motion": 15.17071215,
        "meta_eccentricity": 0.00049059,
        "meta_inclination": 97.4443,
        "meta_ra_of_asc_node": 72.1112,
        "meta_arg_of_pericenter": 225.1394,
        "meta_mean_anomaly": 134.9441,
        "meta_ephemeris_type": 0,
        "meta_classification_type": "U",
        "meta_norad_cat_id": 66683,
        "meta_element_set_no": 999,
        "meta_rev_at_epoch": 422,
        "meta_bstar": 0.00045827198,
        "meta_mean_motion_dot": 9.014e-05,
        "meta_mean_motion_ddot": 0,
        "tle_line1": "1 66683U 25276T   25360.59513690  .00009014  00000+0  45827-3 0  9997",
        "tle_line2": "2 66683  97.4443  72.1112 0004905 225.1394 134.9441 15.17071215  4224"
      },
      "geometry": {
        "type": "Point",
        "coordinates": [
          -108.33597965721616,
          -5.638829056897854
        ]
      }
    },
    {
      "type": "Feature",
      "properties": {
        "norad_id": 66684,
        "name": "TRANSPORTER-15U",
        "group": "last-30-days",
        "lat": -27.225525757106304,
        "lon": -111.43702676471871,
        "alt_km": 516.403308348642,
        "timestamp": "2025-12-26T21:25:51.732711+00:00",
        "meta_object_name": "TRANSPORTER-15U",
        "meta_object_id": "2025-276U",
        "meta_epoch": "2025-12-26T09:26:28.287744",
        "meta_mean_motion": 15.17404693,
        "meta_eccentricity": 0.00046454,
        "meta_inclination": 97.4468,
        "meta_ra_of_asc_node": 71.9305,
        "meta_arg_of_pericenter": 224.2979,
        "meta_mean_anomaly": 135.7884,
        "meta_ephemeris_type": 0,
        "meta_classification_type": "U",
        "meta_norad_cat_id": 66684,
        "meta_element_set_no": 999,
        "meta_rev_at_epoch": 419,
        "meta_bstar": 0.00057817767,
        "meta_mean_motion_dot": 0.00011502,
        "meta_mean_motion_ddot": 0,
        "tle_line1": "1 66684U 25276U   25360.39338296  .00011502  00000+0  57818-3 0  9991",
        "tle_line2": "2 66684  97.4468  71.9305 0004645 224.2979 135.7884 15.17404693  4199"
      },
      "geometry": {
        "type": "Point",
        "coordinates": [
          -111.43702676471871,
          -27.225525757106304
        ]
      }
    },
    {
      "type": "Feature",
      "properties": {
        "norad_id": 66685,
        "name": "TRANSPORTER-15V",
        "group": "last-30-days",
        "lat": -35.6645936843941,
        "lon": -112.97645933990047,
        "alt_km": 518.3117354959923,
        "timestamp": "2025-12-26T21:25:51.732721+00:00",
        "meta_object_name": "TRANSPORTER-15V",
        "meta_object_id": "2025-276V",
        "meta_epoch": "2025-12-26T03:04:19.749504",
        "meta_mean_motion": 15.17397324,
        "meta_eccentricity": 0.00032136,
        "meta_inclination": 97.4413,
        "meta_ra_of_asc_node": 71.6542,
        "meta_arg_of_pericenter": 231.2605,
        "meta_mean_anomaly": 128.8342,
        "meta_ephemeris_type": 0,
        "meta_classification_type": "U",
        "meta_norad_cat_id": 66685,
        "meta_element_set_no": 999,
        "meta_rev_at_epoch": 415,
        "meta_bstar": -0.0041618973,
        "meta_mean_motion_dot": -0.00082255,
        "meta_mean_motion_ddot": 0,
        "tle_line1": "1 66685U 25276V   25360.12800636 -.00082255  00000+0 -41619-2 0  9991",
        "tle_line2": "2 66685  97.4413  71.6542 0003213 231.2605 128.8342 15.17397324  4154"
      },
      "geometry": {
        "type": "Point",
        "coordinates": [
          -112.97645933990047,
          -35.6645936843941
        ]
      }
    },
    {
      "type": "Feature",
      "properties": {
        "norad_id": 66686,
        "name": "TRANSPORTER-15W",
        "group": "last-30-days",
        "lat": -28.246121947285538,
        "lon": -111.62721304777523,
        "alt_km": 505.78610889875745,
        "timestamp": "2025-12-26T21:25:51.732734+00:00",
        "meta_object_name": "TRANSPORTER-15W",
        "meta_object_id": "2025-276W",
        "meta_epoch": "2025-12-24T16:18:47.855520",
        "meta_mean_motion": 15.18035485,
        "meta_eccentricity": 0.00181838,
        "meta_inclination": 97.4405,
        "meta_ra_of_asc_node": 70.2223,
        "meta_arg_of_pericenter": 243.6801,
        "meta_mean_anomaly": 116.2566,
        "meta_ephemeris_type": 0,
        "meta_classification_type": "U",
        "meta_norad_cat_id": 66686,
        "meta_element_set_no": 999,
        "meta_rev_at_epoch": 393,
        "meta_bstar": 0.0029615296,
        "meta_mean_motion_dot": 0.00060911,
        "meta_mean_motion_ddot": 0,
        "tle_line1": "1 66686U 25276W   25358.67972055  .00060911  00000+0  29615-2 0  9999",
        "tle_line2": "2 66686  97.4405  70.2223 0018183 243.6801 116.2566 15.18035485  3936"
      },
      "geometry": {
        "type": "Point",
        "coordinates": [
          -111.62721304777523,
          -28.246121947285538
        ]
      }
    },
    {
      "type": "Feature",
      "properties": {
        "norad_id": 66687,
        "name": "TRANSPORTER-15X",
        "group": "last-30-days",
        "lat": 23.06242272098507,
        "lon": -104.44325250358153,
        "alt_km": 517.5625880560729,
        "timestamp": "2025-12-26T21:25:51.732746+00:00",
        "meta_object_name": "TRANSPORTER-15X",
        "meta_object_id": "2025-276X",
        "meta_epoch": "2025-12-26T14:24:37.013760",
        "meta_mean_motion": 15.16802705,
        "meta_eccentricity": 0.00081041,
        "meta_inclination": 97.4384,
        "meta_ra_of_asc_node": 72.081,
        "meta_arg_of_pericenter": 42.047,
        "meta_mean_anomaly": 318.1384,
        "meta_ephemeris_type": 0,
        "meta_classification_type": "U",
        "meta_norad_cat_id": 66687,
        "meta_element_set_no": 999,
        "meta_rev_at_epoch": 422,
        "meta_bstar": 0.00070615044,
        "meta_mean_motion_dot": 0.00013835,
        "meta_mean_motion_ddot": 0,
        "tle_line1": "1 66687U 25276X   25360.60042840  .00013835  00000+0  70615-3 0  9996",
        "tle_line2": "2 66687  97.4384  72.0810 0008104  42.0470 318.1384 15.16802705  4229"
      },
      "geometry": {
        "type": "Point",
        "coordinates": [
          -104.44325250358153,
          23.06242272098507
        ]
      }
    },
    {
      "type": "Feature",
      "properties": {
        "norad_id": 66688,
        "name": "TRANSPORTER-15Y",
        "group": "last-30-days",
        "lat": -15.841687508795955,
        "lon": -109.72357955736366,
        "alt_km": 517.1929133750955,
        "timestamp": "2025-12-26T21:25:51.732757+00:00",
        "meta_object_name": "TRANSPORTER-15Y",
        "meta_object_id": "2025-276Y",
        "meta_epoch": "2025-12-25T12:54:40.837824",
        "meta_mean_motion": 15.17117879,
        "meta_eccentricity": 0.0003764,
        "meta_inclination": 97.4426,
        "meta_ra_of_asc_node": 71.0715,
        "meta_arg_of_pericenter": 234.2435,
        "meta_mean_anomaly": 125.8449,
        "meta_ephemeris_type": 0,
        "meta_classification_type": "U",
        "meta_norad_cat_id": 66688,
        "meta_element_set_no": 999,
        "meta_rev_at_epoch": 406,
        "meta_bstar": 0.00056854,
        "meta_mean_motion_dot": 0.00011216,
        "meta_mean_motion_ddot": 0,
        "tle_line1": "1 66688U 25276Y   25359.53797266  .00011216  00000+0  56854-3 0  9996",
        "tle_line2": "2 66688  97.4426  71.0715 0003764 234.2435 125.8449 15.17117879  4062"
      },
      "geometry": {
        "type": "Point",
        "coordinates": [
          -109.72357955736366,
          -15.841687508795955
        ]
      }
    },
    {
      "type": "Feature",
      "properties": {
        "norad_id": 66689,
        "name": "TRANSPORTER-15Z",
        "group": "last-30-days",
        "lat": 81.25194797307812,
        "lon": -49.36215113577472,
        "alt_km": 437.01043085046695,
        "timestamp": "2025-12-26T21:25:51.732769+00:00",
        "meta_object_name": "TRANSPORTER-15Z",
        "meta_object_id": "2025-276Z",
        "meta_epoch": "2025-12-22T21:27:46.425312",
        "meta_mean_motion": 15.23073772,
        "meta_eccentricity": 0.00272271,
        "meta_inclination": 97.4409,
        "meta_ra_of_asc_node": 68.4858,
        "meta_arg_of_pericenter": 260.8557,
        "meta_mean_anomaly": 98.9599,
        "meta_ephemeris_type": 0,
        "meta_classification_type": "U",
        "meta_norad_cat_id": 66689,
        "meta_element_set_no": 999,
        "meta_rev_at_epoch": 366,
        "meta_bstar": 0.086131248,
        "meta_mean_motion_dot": 0.02294864,
        "meta_mean_motion_ddot": 0,
        "tle_line1": "1 66689U 25276Z   25356.89428733  .02294864  00000+0  86131-1 0  9996",
        "tle_line2": "2 66689  97.4409  68.4858 0027227 260.8557  98.9599 15.23073772  3663"
      },
      "geometry": {
        "type": "Point",
        "coordinates": [
          -49.36215113577472,
          81.25194797307812
        ]
      }
    }
  ]
}